[{"OBJECT_NAME":"STARLINK-11340 [DTC]","OBJECT_ID":"2024-195D","EPOCH":"2026-03-09T06:14:15.732384","MEAN_MOTION":15.69680212,"ECCENTRICITY":0.0002115,"INCLINATION":53.1592,"RA_OF_ASC_NODE":28.561,"ARG_OF_PERICENTER":91.5297,"MEAN_ANOMALY":268.5963,"EPHEMERIS_TYPE":0,"CLASSIFICATION_TYPE":"U","NORAD_CAT_ID":61690,"ELEMENT_SET_NO":999,"REV_AT_EPOCH":7896,"BSTAR":-1.489116e-5,"MEAN_MOTION_DOT":-2.391e-5,"MEAN_MOTION_DDOT":0},{"OBJECT_NAME":"ISS OBJECT XT","OBJECT_ID":"1998-067XT","EPOCH":"2026-03-09T23:09:29.137248","MEAN_MOTION":15.69333449,"ECCENTRICITY":0.00047012,"INCLINATION":51.6253,"RA_OF_ASC_NODE":64.2319,"ARG_OF_PERICENTER":78.1098,"MEAN_ANOMALY":282.0426,"EPHEMERIS_TYPE":0,"CLASSIFICATION_TYPE":"U","NORAD_CAT_ID":66907,"ELEMENT_SET_NO":999,"REV_AT_EPOCH":1522,"BSTAR":0.0013746382,"MEAN_MOTION_DOT":0.00167047,"MEAN_MOTION_DDOT":0}]
